{"fetched_at":"2026-07-07T07:58:10.717Z","source":"https://celestrak.org/NORAD/elements/gp.php?GROUP=oneweb&FORMAT=JSON","constellation":"oneweb","records":[{"OBJECT_NAME":"ONEWEB-0435","OBJECT_ID":"2022-012L","EPOCH":"2026-07-06T14:09:09.251424","CLASSIFICATION_TYPE":"U","MEAN_MOTION":13.10359173,"ECCENTRICITY":0.0001985,"INCLINATION":87.8817,"RA_OF_ASC_NODE":32.4125,"ARG_OF_PERICENTER":99.3496,"MEAN_ANOMALY":260.7856,"EPHEMERIS_TYPE":0,"NORAD_CAT_ID":51632,"ELEMENT_SET_NO":999,"REV_AT_EPOCH":21185,"BSTAR":-0.005975,"MEAN_MOTION_DOT":-0.00002072,"MEAN_MOTION_DDOT":0},{"OBJECT_NAME":"ONEWEB-0436","OBJECT_ID":"2022-012M","EPOCH":"2026-07-06T11:59:59.500608","CLASSIFICATION_TYPE":"U","MEAN_MOTION":13.17650744,"ECCENTRICITY":0.0001828,"INCLINATION":87.9146,"RA_OF_ASC_NODE":2.0042,"ARG_OF_PERICENTER":97.8244,"MEAN_ANOMALY":262.3095,"EPHEMERIS_TYPE":0,"NORAD_CAT_ID":51633,"ELEMENT_SET_NO":999,"REV_AT_EPOCH":21622,"BSTAR":0.000060307703,"MEAN_MOTION_DOT":3.6e-7,"MEAN_MOTION_DDOT":0},{"OBJECT_NAME":"ONEWEB-0438","OBJECT_ID":"2022-012N","EPOCH":"2026-07-06T13:47:11.698080","CLASSIFICATION_TYPE":"U","MEAN_MOTION":13.1037173,"ECCENTRICITY":0.0001915,"INCLINATION":87.8815,"RA_OF_ASC_NODE":32.4178,"ARG_OF_PERICENTER":80.4267,"MEAN_ANOMALY":279.7077,"EPHEMERIS_TYPE":0,"NORAD_CAT_ID":51634,"ELEMENT_SET_NO":999,"REV_AT_EPOCH":21188,"BSTAR":0.00053112,"MEAN_MOTION_DOT":0.00000198,"MEAN_MOTION_DDOT":0},{"OBJECT_NAME":"ONEWEB-0439","OBJECT_ID":"2022-012P","EPOCH":"2026-07-06T13:52:05.038176","CLASSIFICATION_TYPE":"U","MEAN_MOTION":13.10370446,"ECCENTRICITY":0.0001809,"INCLINATION":87.8813,"RA_OF_ASC_NODE":32.4044,"ARG_OF_PERICENTER":84.9234,"MEAN_ANOMALY":275.21,"EPHEMERIS_TYPE":0,"NORAD_CAT_ID":51635,"ELEMENT_SET_NO":999,"REV_AT_EPOCH":21186,"BSTAR":0.00010554,"MEAN_MOTION_DOT":5e-7,"MEAN_MOTION_DDOT":0},{"OBJECT_NAME":"ONEWEB-0442","OBJECT_ID":"2022-012Q","EPOCH":"2026-07-06T17:17:07.966176","CLASSIFICATION_TYPE":"U","MEAN_MOTION":13.17650907,"ECCENTRICITY":0.0002011,"INCLINATION":87.9137,"RA_OF_ASC_NODE":1.9916,"ARG_OF_PERICENTER":73.9381,"MEAN_ANOMALY":286.1972,"EPHEMERIS_TYPE":0,"NORAD_CAT_ID":51636,"ELEMENT_SET_NO":999,"REV_AT_EPOCH":21624,"BSTAR":0.00017479,"MEAN_MOTION_DOT":8.1e-7,"MEAN_MOTION_DDOT":0},{"OBJECT_NAME":"ONEWEB-0443","OBJECT_ID":"2022-012R","EPOCH":"2026-07-06T17:45:02.539008","CLASSIFICATION_TYPE":"U","MEAN_MOTION":13.17649669,"ECCENTRICITY":0.0001525,"INCLINATION":87.9137,"RA_OF_ASC_NODE":1.989,"ARG_OF_PERICENTER":88.3147,"MEAN_ANOMALY":271.8159,"EPHEMERIS_TYPE":0,"NORAD_CAT_ID":51637,"ELEMENT_SET_NO":999,"REV_AT_EPOCH":21629,"BSTAR":-0.000011334,"MEAN_MOTION_DOT":8e-8,"MEAN_MOTION_DDOT":0},{"OBJECT_NAME":"ONEWEB-0444","OBJECT_ID":"2022-012S","EPOCH":"2026-07-06T13:37:25.987296","CLASSIFICATION_TYPE":"U","MEAN_MOTION":13.10372749,"ECCENTRICITY":0.0001651,"INCLINATION":87.8814,"RA_OF_ASC_NODE":32.405,"ARG_OF_PERICENTER":85.9145,"MEAN_ANOMALY":274.217,"EPHEMERIS_TYPE":0,"NORAD_CAT_ID":51638,"ELEMENT_SET_NO":999,"REV_AT_EPOCH":21187,"BSTAR":0.0014726,"MEAN_MOTION_DOT":0.00000527,"MEAN_MOTION_DDOT":0},{"OBJECT_NAME":"ONEWEB-0445","OBJECT_ID":"2022-012T","EPOCH":"2026-07-06T14:06:41.466816","CLASSIFICATION_TYPE":"U","MEAN_MOTION":13.10370055,"ECCENTRICITY":0.0002113,"INCLINATION":87.8823,"RA_OF_ASC_NODE":32.3906,"ARG_OF_PERICENTER":86.7981,"MEAN_ANOMALY":273.3388,"EPHEMERIS_TYPE":0,"NORAD_CAT_ID":51639,"ELEMENT_SET_NO":999,"REV_AT_EPOCH":21188,"BSTAR":-0.0013728,"MEAN_MOTION_DOT":-0.00000467,"MEAN_MOTION_DDOT":0},{"OBJECT_NAME":"ONEWEB-0446","OBJECT_ID":"2022-012U","EPOCH":"2026-07-06T15:24:54.625824","CLASSIFICATION_TYPE":"U","MEAN_MOTION":13.10369967,"ECCENTRICITY":0.0002204,"INCLINATION":87.8817,"RA_OF_ASC_NODE":32.4073,"ARG_OF_PERICENTER":85.5968,"MEAN_ANOMALY":274.5411,"EPHEMERIS_TYPE":0,"NORAD_CAT_ID":51640,"ELEMENT_SET_NO":999,"REV_AT_EPOCH":21187,"BSTAR":0.0017725,"MEAN_MOTION_DOT":0.00000631,"MEAN_MOTION_DDOT":0},{"OBJECT_NAME":"ONEWEB-0448","OBJECT_ID":"2022-012V","EPOCH":"2026-07-06T13:42:19.169280","CLASSIFICATION_TYPE":"U","MEAN_MOTION":13.10372846,"ECCENTRICITY":0.0001815,"INCLINATION":87.8812,"RA_OF_ASC_NODE":32.4174,"ARG_OF_PERICENTER":86.1279,"MEAN_ANOMALY":274.0056,"EPHEMERIS_TYPE":0,"NORAD_CAT_ID":51641,"ELEMENT_SET_NO":999,"REV_AT_EPOCH":21183,"BSTAR":0.0011619,"MEAN_MOTION_DOT":0.00000418,"MEAN_MOTION_DDOT":0},{"OBJECT_NAME":"ONEWEB-0449","OBJECT_ID":"2022-012W","EPOCH":"2026-07-06T13:49:37.272576","CLASSIFICATION_TYPE":"U","MEAN_MOTION":13.10370027,"ECCENTRICITY":0.000211,"INCLINATION":87.8818,"RA_OF_ASC_NODE":32.4029,"ARG_OF_PERICENTER":71.1207,"MEAN_ANOMALY":289.0149,"EPHEMERIS_TYPE":0,"NORAD_CAT_ID":51642,"ELEMENT_SET_NO":999,"REV_AT_EPOCH":21184,"BSTAR":0.00027608,"MEAN_MOTION_DOT":0.00000109,"MEAN_MOTION_DDOT":0},{"OBJECT_NAME":"ONEWEB-0451","OBJECT_ID":"2022-012X","EPOCH":"2026-07-06T17:23:11.270400","CLASSIFICATION_TYPE":"U","MEAN_MOTION":13.17651102,"ECCENTRICITY":0.0001815,"INCLINATION":87.9148,"RA_OF_ASC_NODE":1.9576,"ARG_OF_PERICENTER":84.524,"MEAN_ANOMALY":275.6098,"EPHEMERIS_TYPE":0,"NORAD_CAT_ID":51643,"ELEMENT_SET_NO":999,"REV_AT_EPOCH":21623,"BSTAR":0.00024331,"MEAN_MOTION_DOT":0.00000107,"MEAN_MOTION_DDOT":0},{"OBJECT_NAME":"ONEWEB-0452","OBJECT_ID":"2022-012Y","EPOCH":"2026-07-06T17:20:44.401632","CLASSIFICATION_TYPE":"U","MEAN_MOTION":13.17651109,"ECCENTRICITY":0.0001613,"INCLINATION":87.914,"RA_OF_ASC_NODE":1.9929,"ARG_OF_PERICENTER":85.7691,"MEAN_ANOMALY":274.3625,"EPHEMERIS_TYPE":0,"NORAD_CAT_ID":51644,"ELEMENT_SET_NO":999,"REV_AT_EPOCH":21624,"BSTAR":0.00020375,"MEAN_MOTION_DOT":9.2e-7,"MEAN_MOTION_DDOT":0},{"OBJECT_NAME":"ONEWEB-0456","OBJECT_ID":"2022-012AA","EPOCH":"2026-07-06T14:01:47.890848","CLASSIFICATION_TYPE":"U","MEAN_MOTION":13.1036889,"ECCENTRICITY":0.0001734,"INCLINATION":87.8826,"RA_OF_ASC_NODE":32.3899,"ARG_OF_PERICENTER":90.1957,"MEAN_ANOMALY":269.9369,"EPHEMERIS_TYPE":0,"NORAD_CAT_ID":51646,"ELEMENT_SET_NO":999,"REV_AT_EPOCH":21188,"BSTAR":-0.0010513,"MEAN_MOTION_DOT":-0.00000354,"MEAN_MOTION_DDOT":0},{"OBJECT_NAME":"ONEWEB-0457","OBJECT_ID":"2022-012AB","EPOCH":"2026-07-06T15:19:52.166208","CLASSIFICATION_TYPE":"U","MEAN_MOTION":13.10373897,"ECCENTRICITY":0.0002191,"INCLINATION":87.8818,"RA_OF_ASC_NODE":32.3954,"ARG_OF_PERICENTER":82.1126,"MEAN_ANOMALY":278.025,"EPHEMERIS_TYPE":0,"NORAD_CAT_ID":51647,"ELEMENT_SET_NO":999,"REV_AT_EPOCH":21189,"BSTAR":0.0018323,"MEAN_MOTION_DOT":0.00000652,"MEAN_MOTION_DDOT":0},{"OBJECT_NAME":"ONEWEB-0458","OBJECT_ID":"2022-012AC","EPOCH":"2026-07-06T14:00:36.342144","CLASSIFICATION_TYPE":"U","MEAN_MOTION":13.10369727,"ECCENTRICITY":0.0001669,"INCLINATION":87.8818,"RA_OF_ASC_NODE":32.3947,"ARG_OF_PERICENTER":82.2338,"MEAN_ANOMALY":277.8979,"EPHEMERIS_TYPE":0,"NORAD_CAT_ID":51648,"ELEMENT_SET_NO":999,"REV_AT_EPOCH":21184,"BSTAR":-0.00090575,"MEAN_MOTION_DOT":-0.00000303,"MEAN_MOTION_DDOT":0}]}
